{
  "type": "FeatureCollection",
  "features": [
    {
      "type": "Feature",
      "properties": {
        "norad_id": 66982,
        "name": "STARLINK-36113",
        "group": "last-30-days",
        "lat": -4.82779247632216,
        "lon": -91.10170043059999,
        "alt_km": 386.90587892221356,
        "timestamp": "2025-12-26T10:30:48.977055+00:00",
        "meta_object_name": "STARLINK-36113",
        "meta_object_id": "2025-288Z",
        "meta_epoch": "2025-12-26T04:00:01.998720",
        "meta_mean_motion": 15.61569992,
        "meta_eccentricity": 0.000129,
        "meta_inclination": 42.9999,
        "meta_ra_of_asc_node": 85.3106,
        "meta_arg_of_pericenter": 279.2383,
        "meta_mean_anomaly": 180.9342,
        "meta_ephemeris_type": 0,
        "meta_classification_type": "U",
        "meta_norad_cat_id": 66982,
        "meta_element_set_no": 999,
        "meta_rev_at_epoch": 398,
        "meta_bstar": -0.025354,
        "meta_mean_motion_dot": -0.01969578,
        "meta_mean_motion_ddot": 0,
        "tle_line1": "1 66982U 25288Z   25360.16668980 -.01969578  00000+0 -25354-1 0  9992",
        "tle_line2": "2 66982  42.9999  85.3106 0001290 279.2383 180.9342 15.61569992  3984"
      },
      "geometry": {
        "type": "Point",
        "coordinates": [
          -91.10170043059999,
          -4.82779247632216
        ]
      }
    },
    {
      "type": "Feature",
      "properties": {
        "norad_id": 66983,
        "name": "STARLINK-36145",
        "group": "last-30-days",
        "lat": -7.424083959426429,
        "lon": -88.27307568342786,
        "alt_km": 387.1201173176605,
        "timestamp": "2025-12-26T10:30:48.977065+00:00",
        "meta_object_name": "STARLINK-36145",
        "meta_object_id": "2025-288AA",
        "meta_epoch": "2025-12-26T04:00:01.998720",
        "meta_mean_motion": 15.6157064,
        "meta_eccentricity": 0.0001296,
        "meta_inclination": 42.9998,
        "meta_ra_of_asc_node": 85.3012,
        "meta_arg_of_pericenter": 278.3398,
        "meta_mean_anomaly": 185.6665,
        "meta_ephemeris_type": 0,
        "meta_classification_type": "U",
        "meta_norad_cat_id": 66983,
        "meta_element_set_no": 999,
        "meta_rev_at_epoch": 398,
        "meta_bstar": -0.025331,
        "meta_mean_motion_dot": -0.01968047,
        "meta_mean_motion_ddot": 0,
        "tle_line1": "1 66983U 25288AA  25360.16668980 -.01968047  00000+0 -25331-1 0  9998",
        "tle_line2": "2 66983  42.9998  85.3012 0001296 278.3398 185.6665 15.61570640  3984"
      },
      "geometry": {
        "type": "Point",
        "coordinates": [
          -88.27307568342786,
          -7.424083959426429
        ]
      }
    },
    {
      "type": "Feature",
      "properties": {
        "norad_id": 66984,
        "name": "STARLINK-35591",
        "group": "last-30-days",
        "lat": -6.128583940498716,
        "lon": -89.69051805865813,
        "alt_km": 386.9917191707036,
        "timestamp": "2025-12-26T10:30:48.977077+00:00",
        "meta_object_name": "STARLINK-35591",
        "meta_object_id": "2025-288AB",
        "meta_epoch": "2025-12-26T04:00:01.998720",
        "meta_mean_motion": 15.61568385,
        "meta_eccentricity": 0.0001236,
        "meta_inclination": 43,
        "meta_ra_of_asc_node": 85.3054,
        "meta_arg_of_pericenter": 277.6382,
        "meta_mean_anomaly": 184.4525,
        "meta_ephemeris_type": 0,
        "meta_classification_type": "U",
        "meta_norad_cat_id": 66984,
        "meta_element_set_no": 999,
        "meta_rev_at_epoch": 398,
        "meta_bstar": -0.025299,
        "meta_mean_motion_dot": -0.01965648,
        "meta_mean_motion_ddot": 0,
        "tle_line1": "1 66984U 25288AB  25360.16668980 -.01965648  00000+0 -25299-1 0  9996",
        "tle_line2": "2 66984  43.0000  85.3054 0001236 277.6382 184.4525 15.61568385  3981"
      },
      "geometry": {
        "type": "Point",
        "coordinates": [
          -89.69051805865813,
          -6.128583940498716
        ]
      }
    },
    {
      "type": "Feature",
      "properties": {
        "norad_id": 66985,
        "name": "STARLINK-36103",
        "group": "last-30-days",
        "lat": -8.71541317660092,
        "lon": -86.84802620282366,
        "alt_km": 387.24691741009974,
        "timestamp": "2025-12-26T10:30:48.977090+00:00",
        "meta_object_name": "STARLINK-36103",
        "meta_object_id": "2025-288AC",
        "meta_epoch": "2025-12-26T04:00:01.998720",
        "meta_mean_motion": 15.61569962,
        "meta_eccentricity": 0.0001304,
        "meta_inclination": 43,
        "meta_ra_of_asc_node": 85.2959,
        "meta_arg_of_pericenter": 279.0217,
        "meta_mean_anomaly": 186.9022,
        "meta_ephemeris_type": 0,
        "meta_classification_type": "U",
        "meta_norad_cat_id": 66985,
        "meta_element_set_no": 999,
        "meta_rev_at_epoch": 398,
        "meta_bstar": -0.025328,
        "meta_mean_motion_dot": -0.01967777,
        "meta_mean_motion_ddot": 0,
        "tle_line1": "1 66985U 25288AC  25360.16668980 -.01967777  00000+0 -25328-1 0  9995",
        "tle_line2": "2 66985  43.0000  85.2959 0001304 279.0217 186.9022 15.61569962  3985"
      },
      "geometry": {
        "type": "Point",
        "coordinates": [
          -86.84802620282366,
          -8.71541317660092
        ]
      }
    },
    {
      "type": "Feature",
      "properties": {
        "norad_id": 66986,
        "name": "STARLINK-36135",
        "group": "last-30-days",
        "lat": -9.99973057171527,
        "lon": -85.41495121016928,
        "alt_km": 387.4087146799793,
        "timestamp": "2025-12-26T10:30:48.977100+00:00",
        "meta_object_name": "STARLINK-36135",
        "meta_object_id": "2025-288AD",
        "meta_epoch": "2025-12-26T04:00:01.998720",
        "meta_mean_motion": 15.61567613,
        "meta_eccentricity": 0.0001333,
        "meta_inclination": 42.9997,
        "meta_ra_of_asc_node": 85.2904,
        "meta_arg_of_pericenter": 281.7939,
        "meta_mean_anomaly": 186.046,
        "meta_ephemeris_type": 0,
        "meta_classification_type": "U",
        "meta_norad_cat_id": 66986,
        "meta_element_set_no": 999,
        "meta_rev_at_epoch": 398,
        "meta_bstar": -0.025272,
        "meta_mean_motion_dot": -0.01963785,
        "meta_mean_motion_ddot": 0,
        "tle_line1": "1 66986U 25288AD  25360.16668980 -.01963785  00000+0 -25272-1 0  9999",
        "tle_line2": "2 66986  42.9997  85.2904 0001333 281.7939 186.0460 15.61567613  3980"
      },
      "geometry": {
        "type": "Point",
        "coordinates": [
          -85.41495121016928,
          -9.99973057171527
        ]
      }
    },
    {
      "type": "Feature",
      "properties": {
        "norad_id": 66987,
        "name": "STARLINK-36147",
        "group": "last-30-days",
        "lat": -11.28099155670767,
        "lon": -83.96526614903279,
        "alt_km": 387.4935505529047,
        "timestamp": "2025-12-26T10:30:48.977111+00:00",
        "meta_object_name": "STARLINK-36147",
        "meta_object_id": "2025-288AE",
        "meta_epoch": "2025-12-26T04:00:01.998720",
        "meta_mean_motion": 15.61571475,
        "meta_eccentricity": 0.0001172,
        "meta_inclination": 42.9997,
        "meta_ra_of_asc_node": 85.2866,
        "meta_arg_of_pericenter": 280.3936,
        "meta_mean_anomaly": 189.3626,
        "meta_ephemeris_type": 0,
        "meta_classification_type": "U",
        "meta_norad_cat_id": 66987,
        "meta_element_set_no": 999,
        "meta_rev_at_epoch": 398,
        "meta_bstar": -0.025379,
        "meta_mean_motion_dot": -0.01971271,
        "meta_mean_motion_ddot": 0,
        "tle_line1": "1 66987U 25288AE  25360.16668980 -.01971271  00000+0 -25379-1 0  9997",
        "tle_line2": "2 66987  42.9997  85.2866 0001172 280.3936 189.3626 15.61571475  3982"
      },
      "geometry": {
        "type": "Point",
        "coordinates": [
          -83.96526614903279,
          -11.28099155670767
        ]
      }
    },
    {
      "type": "Feature",
      "properties": {
        "norad_id": 66988,
        "name": "YAOGAN-47",
        "group": "last-30-days",
        "lat": -2.9631907512220046,
        "lon": -114.79912066118413,
        "alt_km": 499.6164099363823,
        "timestamp": "2025-12-26T10:30:48.977121+00:00",
        "meta_object_name": "YAOGAN-47",
        "meta_object_id": "2025-289A",
        "meta_epoch": "2025-12-20T02:21:43.539840",
        "meta_mean_motion": 15.23243112,
        "meta_eccentricity": 6.467e-05,
        "meta_inclination": 97.5265,
        "meta_ra_of_asc_node": 59.2376,
        "meta_arg_of_pericenter": 91.4531,
        "meta_mean_anomaly": 268.678,
        "meta_ephemeris_type": 0,
        "meta_classification_type": "U",
        "meta_norad_cat_id": 66988,
        "meta_element_set_no": 999,
        "meta_rev_at_epoch": 166,
        "meta_bstar": 0.00010945697,
        "meta_mean_motion_dot": 2.52e-05,
        "meta_mean_motion_ddot": 0,
        "tle_line1": "1 66988U 25289A   25354.09842060  .00002520  00000+0  10946-3 0  9992",
        "tle_line2": "2 66988  97.5265  59.2376 0000646  91.4531 268.6780 15.23243112  1668"
      },
      "geometry": {
        "type": "Point",
        "coordinates": [
          -114.79912066118413,
          -2.9631907512220046
        ]
      }
    }
  ]
}